[
    {
        "Altitude(m)": 624792.7909760067,
        "Argument of Periapsis(deg)": 0.0,
        "Eccentricity": 0.0,
        "Inclination(deg)": 60.0,
        "Latitude(deg)": -59.1471448821508,
        "Longitude(deg)": -140.9737499306202,
        "Mean Anomaly(deg)": 261.8182,
        "RAAN(deg)": 65.0,
        "Satellite Name": "Test1 302",
        "Satellite Number": 302,
        "Semi-Major Axis(m)": 6980739.136638005,
        "Time(s)": 0
    },
    {
        "Altitude(m)": 624842.1835491615,
        "Argument of Periapsis(deg)": 0.00010418945913296404,
        "Eccentricity": 0.0,
        "Inclination(deg)": 60.0,
        "Latitude(deg)": -59.28923026303177,
        "Longitude(deg)": -139.84424480151188,
        "Mean Anomaly(deg)": 262.43830614546187,
        "RAAN(deg)": 64.99957995086025,
        "Satellite Name": "Test1 302",
        "Satellite Number": 302,
        "Semi-Major Axis(m)": 6980739.136638005,
        "Time(s)": 10
    }
]